NORAD_CAT_ID,OBJECT_NAME,OBJECT_TYPE,EPOCH,MEAN_MOTION,ECCENTRICITY,INCLINATION,RA_OF_ASC_NODE,ARG_OF_PERICENTER,MEAN_ANOMALY,BSTAR,MEAN_MOTION_DOT,MEAN_MOTION_DDOT,TLE_LINE0,TLE_LINE1,TLE_LINE2,SEMIMAJOR_AXIS,PERIOD,APOGEE,PERIGEE,DECAYED
53869.0,STARLINK-4810,PAYLOAD,2022-12-10 01:27:40,15.73179752,0.0003366,53.2138,212.8661,10.0628,350.0459,-5.5639e-05,-8.420000000000001e-05,0.0,0 STARLINK-4810,1 53869U 22114BD  22344.06088841 -.00008420  00000-0 -55639-4 0  9999,2 53869  53.2138 212.8661 0003366  10.0628 350.0459 15.73179752 13485,6727.953,91.534,352.083,347.55300000000005,0.0
53869.0,STARLINK-4810,PAYLOAD,2022-12-10 19:45:26,15.73210683,0.0003374,53.214,209.095,8.4496,351.658,6.2258e-05,8.129e-05,0.0,0 STARLINK-4810,1 53869U 22114BD  22344.82321817  .00008129  00000-0  62258-4 0  9995,2 53869  53.2140 209.0950 0003374   8.4496 351.6580 15.73210683 14156,6727.865,91.533,352.0,347.46,0.0
53869.0,STARLINK-4810,PAYLOAD,2022-12-10 21:16:54,15.73213394,0.0003954,53.2138,208.777,7.1714,352.9362,9.7231e-05,0.00013056,0.0,0 STARLINK-4810,1 53869U 22114BD  22344.88674703  .00013056  00000-0  97231-4 0  9990,2 53869  53.2138 208.7770 0003954   7.1714 352.9362 15.73213394 13616,6727.857,91.532,352.38199999999995,347.06199999999984,0.0
53869.0,STARLINK-4810,PAYLOAD,2022-12-11 20:09:07,15.73217113,0.0003904,53.2144,204.064,13.0312,347.0809,0.00017653,0.0002425,0.0,0 STARLINK-4810,1 53869U 22114BD  22345.83966590  .00024250  00000-0  17653-3 0  9991,2 53869  53.2144 204.0640 0003904  13.0312 347.0809 15.73217113 13763,6727.846,91.532,352.338,347.085,0.0
53869.0,STARLINK-4810,PAYLOAD,2022-12-12 00:43:33,15.73241016,0.0003552,53.2142,203.1215,10.3493,349.76,0.0001879,0.00025882,0.0,0 STARLINK-4810,1 53869U 22114BD  22346.03024314  .00025882  00000-0  18790-3 0  9998,2 53869  53.2142 203.1215 0003552  10.3493 349.7600 15.73241016 13798,6727.778,91.531,352.033,347.254,0.0
53869.0,STARLINK-4810,PAYLOAD,2022-12-13 07:13:08,15.73215608,0.00035,53.2171,196.8359,341.0247,19.0642,8.224899999999999e-05,0.00010946,0.0,0 STARLINK-4810,1 53869U 22114BD  22347.30079486  .00010946  00000-0  82249-4 0  9995,2 53869  53.2171 196.8359 0003500 341.0247  19.0642 15.73215608 13994,6727.851,91.532,352.07,347.361,0.0
53869.0,STARLINK-4810,PAYLOAD,2022-12-13 13:19:05,15.73176925,0.0004056,53.2144,195.5752,16.7385,343.3768,5.6668e-05,7.331e-05,0.0,0 STARLINK-4810,1 53869U 22114BD  22347.55491931  .00007331  00000-0  56668-4 0  9995,2 53869  53.2144 195.5752 0004056  16.7385 343.3768 15.73176925 14589,6727.9609999999975,91.535,352.555,347.097,0.0
53869.0,STARLINK-4810,PAYLOAD,2022-12-13 23:59:27,15.73185626,0.0004001,53.2147,193.3747,18.1074,342.0088,4.8216e-05,6.146e-05,0.0,0 STARLINK-4810,1 53869U 22114BD  22347.99962098  .00006146  00000-0  48216-4 0  9993,2 53869  53.2147 193.3747 0004001  18.1074 342.0088 15.73185626 14650,6727.936,91.534,352.49300000000005,347.1090000000001,0.0
53869.0,STARLINK-4810,PAYLOAD,2022-12-14 18:17:12,15.73209006,0.0003781,53.2162,189.603,2.6391,357.4649,6.5824e-05,8.63e-05,0.0,0 STARLINK-4810,1 53869U 22114BD  22348.76195182  .00008630  00000-0  65824-4 0  9995,2 53869  53.2162 189.6030 0003781   2.6391 357.4649 15.73209006 14229,6727.869000000002,91.533,352.278,347.191,0.0
53869.0,STARLINK-4810,PAYLOAD,2022-12-14 19:48:41,15.73208783,0.0003812,53.2158,189.2889,1.5214,358.5817,6.1795e-05,8.063e-05,0.0,0 STARLINK-4810,1 53869U 22114BD  22348.82547968  .00008063  00000-0  61795-4 0  9998,2 53869  53.2158 189.2889 0003812   1.5214 358.5817 15.73208783 14780,6727.87,91.533,352.3,347.17,0.0
53869.0,STARLINK-4810,PAYLOAD,2022-12-15 20:12:21,15.73232029,0.000351,53.2159,184.2574,2.5614,357.5424,5.8405e-05,7.594e-05,0.0,0 STARLINK-4810,1 53869U 22114BD  22349.84191116  .00007594  00000-0  58405-4 0  9993,2 53869  53.2159 184.2574 0003510   2.5614 357.5424 15.73232029 14948,6727.804,91.531,352.03,347.307,0.0
53869.0,STARLINK-4810,PAYLOAD,2022-12-15 21:43:49,15.73230738,0.0004031,53.2171,183.9446,7.1948,352.9129,4.9419e-05,6.328e-05,0.0,0 STARLINK-4810,1 53869U 22114BD  22349.90543929  .00006328  00000-0  49419-4 0  9992,2 53869  53.2171 183.9446 0004031   7.1948 352.9129 15.73230738 14403,6727.808000000001,91.531,352.385,346.961,0.0
53869.0,STARLINK-4810,PAYLOAD,2022-12-16 12:58:37,15.73217456,0.0003979,53.2162,180.7992,3.1068,356.9976,-2.2431e-06,-9.4e-06,0.0,0 STARLINK-4810,1 53869U 22114BD  22350.54071626 -.00000940  00000-0 -22431-5 0  9996,2 53869  53.2162 180.7992 0003979   3.1068 356.9976 15.73217456 14500,6727.845,91.532,352.38699999999994,347.033,0.0
53869.0,STARLINK-4810,PAYLOAD,2022-12-16 19:04:32,15.73222694,0.0003794,53.2163,179.5419,9.3425,350.7665,1.3398e-05,1.259e-05,0.0,0 STARLINK-4810,1 53869U 22114BD  22350.79482514  .00001259  00000-0  13398-4 0  9998,2 53869  53.2163 179.5419 0003794   9.3425 350.7665 15.73222694 15093,6727.83,91.532,352.24800000000016,347.14300000000014,0.0
53869.0,STARLINK-4810,PAYLOAD,2022-12-16 22:07:31,15.73194503,0.0004062,53.2168,178.91400000000004,5.8561,354.2506,-5.5581e-05,-8.419e-05,0.0,0 STARLINK-4810,1 53869U 22114BD  22350.92188909 -.00008419  00000-0 -55581-4 0  9991,2 53869  53.2168 178.9140 0004062   5.8561 354.2506 15.73194503 14564,6727.911,91.534,352.509,347.043,0.0
53869.0,STARLINK-4810,PAYLOAD,2022-12-17 13:22:18,15.73212257,0.0004019,53.2172,175.771,4.2918,355.8136,1.5146e-05,1.503e-05,0.0,0 STARLINK-4810,1 53869U 22114BD  22351.55716207  .00001503  00000-0  15146-4 0  9997,2 53869  53.2172 175.7710 0004019   4.2918 355.8136 15.73212257 15214,6727.86,91.532,352.42900000000014,347.021,0.0
53869.0,STARLINK-4810,PAYLOAD,2022-12-17 19:28:13,15.73219741,0.0004017,53.2167,174.514,3.8949,356.2102,6.513600000000001e-05,8.537e-05,0.0,0 STARLINK-4810,1 53869U 22114BD  22351.81127252  .00008537  00000-0  65136-4 0  9990,2 53869  53.2167 174.5140 0004017   3.8949 356.2102 15.73219741 15256,6727.839,91.532,352.406,347.001,0.0
53869.0,STARLINK-4810,PAYLOAD,2022-12-18 12:14:30,15.7322293,0.0004067,53.2158,171.0567,1.5563,358.5469,5.0683e-05,6.504e-05,0.0,0 STARLINK-4810,1 53869U 22114BD  22352.51007509  .00006504  00000-0  50683-4 0  9993,2 53869  53.2158 171.0567 0004067   1.5563 358.5469 15.73222930 15360,6727.83,91.532,352.431,346.959,0.0
53869.0,STARLINK-4810,PAYLOAD,2022-12-18 21:23:24,15.7318769,0.0004126,53.2163,169.1688,3.495,356.6098,-4.4591e-05,-6.878e-05,0.0,0 STARLINK-4810,1 53869U 22114BD  22352.89125307 -.00006878  00000-0 -44591-4 0  9998,2 53869  53.2163 169.1688 0004126   3.4950 356.6098 15.73187690 15422,6727.93,91.534,352.571,347.019,0.0
53869.0,STARLINK-4810,PAYLOAD,2022-12-19 05:00:48,15.73186435,0.0004083,53.2166,167.5972,1.5679,358.5353,-3.5053000000000005e-05,-5.539999999999999e-05,0.0,0 STARLINK-4810,1 53869U 22114BD  22353.20889646 -.00005540  00000-0 -35053-4 0  9995,2 53869  53.2166 167.5972 0004083   1.5679 358.5353 15.73186435 14927,6727.934,91.534,352.546,347.052,0.0
53869.0,STARLINK-4810,PAYLOAD,2022-12-19 18:44:07,15.73207845,0.0004369,53.2165,164.7687,6.0296,354.0776,5.659300000000001e-05,7.331e-05,0.0,0 STARLINK-4810,1 53869U 22114BD  22353.78064647  .00007331  00000-0  56593-4 0  9994,2 53869  53.2165 164.7687 0004369   6.0296 354.0776 15.73207845 15560,6727.873000000001,91.533,352.677,346.798,0.0
53869.0,STARLINK-4810,PAYLOAD,2022-12-20 11:30:23,15.7324301,0.0004017,53.2154,161.3095,3.103,357.0015,0.00010578,0.00014279,0.0,0 STARLINK-4810,1 53869U 22114BD  22354.47943382  .00014279  00000-0  10578-3 0  9994,2 53869  53.2154 161.3095 0004017   3.1030 357.0015 15.73243010 15123,6727.773,91.531,352.34,346.935,0.0
53869.0,STARLINK-4810,PAYLOAD,2022-12-20 20:39:16,15.73210166,0.0004443,53.2157,159.4234,4.9678,355.1385,-4.103e-05,-6.385e-05,0.0,0 STARLINK-4810,1 53869U 22114BD  22354.86060531 -.00006385  00000-0 -41030-4 0  9992,2 53869  53.2157 159.4234 0004443   4.9678 355.1385 15.73210166 15180,6727.866,91.533,352.72,346.742,0.0
53869.0,STARLINK-4810,PAYLOAD,2022-12-21 04:16:41,15.73173714,0.0004571,53.2161,157.8506,13.731,346.3833,-0.00013077,-0.00018928,0.0,0 STARLINK-4810,1 53869U 22114BD  22355.17825884 -.00018928  00000-0 -13077-3 0  9992,2 53869  53.2161 157.8506 0004571  13.7310 346.3833 15.73173714 15235,6727.97,91.535,352.91,346.76,0.0
53869.0,STARLINK-4810,PAYLOAD,2022-12-21 14:57:03,15.73187696,0.0004694,53.2157,155.6521,3.105,356.9998,-2.1892e-05,-3.697e-05,0.0,0 STARLINK-4810,1 53869U 22114BD  22355.62295737 -.00003697  00000-0 -21892-4 0  9992,2 53869  53.2157 155.6521 0004694   3.1050 356.9998 15.73187696 15304,6727.93,91.534,352.95300000000015,346.63699999999994,0.0
53869.0,STARLINK-4810,PAYLOAD,2022-12-21 19:31:29,15.73201147,0.0005291,53.216,154.7082,2.7509,357.3539,6.231100000000001e-05,8.134e-05,0.0,0 STARLINK-4810,1 53869U 22114BD  22355.81354082  .00008134  00000-0  62311-4 0  9992,2 53869  53.2160 154.7082 0005291   2.7509 357.3539 15.73201147 15335,6727.892,91.533,353.31699999999995,346.19699999999995,0.0
53869.0,STARLINK-4810,PAYLOAD,2022-12-22 19:55:09,15.73261062,0.0004209,53.2165,149.6783,9.0769,351.0326,0.00020715,0.00028636,0.0,0 STARLINK-4810,1 53869U 22114BD  22356.82997621  .00028636  00000-0  20715-3 0  9996,2 53869  53.2165 149.6783 0004209   9.0769 351.0326 15.73261062 16043,6727.721,91.53,352.418,346.754,0.0
53869.0,STARLINK-4810,PAYLOAD,2022-12-22 21:26:40,15.731930300000002,0.0005447999999999,53.2161,149.3639,14.4388,345.6787,2.8068000000000013e-05,3.316e-05,0.0,0 STARLINK-4810,1 53869U 22114BD  22356.89352735  .00003316  00000-0  28068-4 0  9992,2 53869  53.2161 149.3639 0005448  14.4388 345.6787 15.73193030 15508,6727.915,91.534,353.445,346.115,0.0
53869.0,STARLINK-4810,PAYLOAD,2022-12-23 12:41:28,15.73223536,0.0004202,53.2162,146.2202,4.6449,355.4609,8.1415e-05,0.00010832,0.0,0 STARLINK-4810,1 53869U 22114BD  22357.52879788  .00010832  00000-0  81415-4 0  9991,2 53869  53.2162 146.2202 0004202   4.6449 355.4609 15.73223536 16156,6727.828,91.532,352.52,346.866,0.0
